{
  "type": "FeatureCollection",
  "features": [
    {
      "type": "Feature",
      "properties": {
        "norad_id": 42988,
        "name": "SKYSAT-C10",
        "group": "resource",
        "lat": -0.28421030073450976,
        "lon": 109.10469120886762,
        "alt_km": 474.6758207696439,
        "timestamp": "2025-12-04T05:42:43.035452+00:00",
        "meta_object_name": "SKYSAT-C10",
        "meta_object_id": "2017-068B",
        "meta_epoch": "2025-12-03T21:52:31.156608",
        "meta_mean_motion": 15.32008568,
        "meta_eccentricity": 0.00055111,
        "meta_inclination": 97.4257,
        "meta_ra_of_asc_node": 108.7403,
        "meta_arg_of_pericenter": 118.6562,
        "meta_mean_anomaly": 241.5234,
        "meta_ephemeris_type": 0,
        "meta_classification_type": "U",
        "meta_norad_cat_id": 42988,
        "meta_element_set_no": 999,
        "meta_rev_at_epoch": 45244,
        "meta_bstar": 0.00065499314,
        "meta_mean_motion_dot": 0.00020203,
        "meta_mean_motion_ddot": 0,
        "tle_line1": "1 42988U 17068B   25337.91147172  .00020203  00000+0  65499-3 0  9997",
        "tle_line2": "2 42988  97.4257 108.7403 0005511 118.6562 241.5234 15.32008568452449"
      },
      "geometry": {
        "type": "Point",
        "coordinates": [
          109.10469120886762,
          -0.28421030073450976
        ]
      }
    },
    {
      "type": "Feature",
      "properties": {
        "norad_id": 42989,
        "name": "SKYSAT-C9",
        "group": "resource",
        "lat": 81.64501989665872,
        "lon": 45.90994491645015,
        "alt_km": 445.0246390698512,
        "timestamp": "2025-12-04T05:42:43.035462+00:00",
        "meta_object_name": "SKYSAT-C9",
        "meta_object_id": "2017-068C",
        "meta_epoch": "2025-12-03T21:31:09.602688",
        "meta_mean_motion": 15.35691525,
        "meta_eccentricity": 0.0010638,
        "meta_inclination": 97.4181,
        "meta_ra_of_asc_node": 108.0834,
        "meta_arg_of_pericenter": 116.4835,
        "meta_mean_anomaly": 243.7501,
        "meta_ephemeris_type": 0,
        "meta_classification_type": "U",
        "meta_norad_cat_id": 42989,
        "meta_element_set_no": 999,
        "meta_rev_at_epoch": 45272,
        "meta_bstar": 0.00065967813,
        "meta_mean_motion_dot": 0.00022897,
        "meta_mean_motion_ddot": 0,
        "tle_line1": "1 42989U 17068C   25337.89663892  .00022897  00000+0  65968-3 0  9999",
        "tle_line2": "2 42989  97.4181 108.0834 0010638 116.4835 243.7501 15.35691525452728"
      },
      "geometry": {
        "type": "Point",
        "coordinates": [
          45.90994491645015,
          81.64501989665872
        ]
      }
    },
    {
      "type": "Feature",
      "properties": {
        "norad_id": 42990,
        "name": "SKYSAT-C8",
        "group": "resource",
        "lat": 27.639387286961515,
        "lon": -67.87924269044771,
        "alt_km": 467.95043186163366,
        "timestamp": "2025-12-04T05:42:43.035472+00:00",
        "meta_object_name": "SKYSAT-C8",
        "meta_object_id": "2017-068D",
        "meta_epoch": "2025-12-03T19:38:57.151392",
        "meta_mean_motion": 15.32607067,
        "meta_eccentricity": 0.00021185,
        "meta_inclination": 97.4277,
        "meta_ra_of_asc_node": 107.7826,
        "meta_arg_of_pericenter": 19.5333,
        "meta_mean_anomaly": 340.5989,
        "meta_ephemeris_type": 0,
        "meta_classification_type": "U",
        "meta_norad_cat_id": 42990,
        "meta_element_set_no": 999,
        "meta_rev_at_epoch": 45234,
        "meta_bstar": 0.00052846093,
        "meta_mean_motion_dot": 0.00016579,
        "meta_mean_motion_ddot": 0,
        "tle_line1": "1 42990U 17068D   25337.81871703  .00016579  00000+0  52846-3 0  9996",
        "tle_line2": "2 42990  97.4277 107.7826 0002118  19.5333 340.5989 15.32607067452342"
      },
      "geometry": {
        "type": "Point",
        "coordinates": [
          -67.87924269044771,
          27.639387286961515
        ]
      }
    },
    {
      "type": "Feature",
      "properties": {
        "norad_id": 42991,
        "name": "SKYSAT-C7",
        "group": "resource",
        "lat": 25.12211207466572,
        "lon": 105.74402413075515,
        "alt_km": 466.2259999052467,
        "timestamp": "2025-12-04T05:42:43.035483+00:00",
        "meta_object_name": "SKYSAT-C7",
        "meta_object_id": "2017-068E",
        "meta_epoch": "2025-12-03T20:11:46.772448",
        "meta_mean_motion": 15.32019698,
        "meta_eccentricity": 0.00078739,
        "meta_inclination": 97.4283,
        "meta_ra_of_asc_node": 108.8539,
        "meta_arg_of_pericenter": 84.7974,
        "meta_mean_anomaly": 275.4166,
        "meta_ephemeris_type": 0,
        "meta_classification_type": "U",
        "meta_norad_cat_id": 42991,
        "meta_element_set_no": 999,
        "meta_rev_at_epoch": 45241,
        "meta_bstar": 0.00063197557,
        "meta_mean_motion_dot": 0.00019505,
        "meta_mean_motion_ddot": 0,
        "tle_line1": "1 42991U 17068E   25337.84151357  .00019505  00000+0  63198-3 0  9990",
        "tle_line2": "2 42991  97.4283 108.8539 0007873  84.7974 275.4166 15.32019698452419"
      },
      "geometry": {
        "type": "Point",
        "coordinates": [
          105.74402413075515,
          25.12211207466572
        ]
      }
    },
    {
      "type": "Feature",
      "properties": {
        "norad_id": 42992,
        "name": "SKYSAT-C6",
        "group": "resource",
        "lat": 11.89312976582726,
        "lon": -68.72787983987082,
        "alt_km": 471.9369910199266,
        "timestamp": "2025-12-04T05:42:43.035492+00:00",
        "meta_object_name": "SKYSAT-C6",
        "meta_object_id": "2017-068F",
        "meta_epoch": "2025-12-03T21:08:22.276032",
        "meta_mean_motion": 15.31198589,
        "meta_eccentricity": 0.00051455,
        "meta_inclination": 97.4317,
        "meta_ra_of_asc_node": 109.3389,
        "meta_arg_of_pericenter": 107.6681,
        "meta_mean_anomaly": 252.5122,
        "meta_ephemeris_type": 0,
        "meta_classification_type": "U",
        "meta_norad_cat_id": 42992,
        "meta_element_set_no": 999,
        "meta_rev_at_epoch": 45240,
        "meta_bstar": 0.00062176327,
        "meta_mean_motion_dot": 0.00018692,
        "meta_mean_motion_ddot": 0,
        "tle_line1": "1 42992U 17068F   25337.88081338  .00018692  00000+0  62176-3 0  9997",
        "tle_line2": "2 42992  97.4317 109.3389 0005145 107.6681 252.5122 15.31198589452400"
      },
      "geometry": {
        "type": "Point",
        "coordinates": [
          -68.72787983987082,
          11.89312976582726
        ]
      }
    },
    {
      "type": "Feature",
      "properties": {
        "norad_id": 43111,
        "name": "CARTOSAT-2F",
        "group": "resource",
        "lat": -73.0872885149166,
        "lon": 61.440250336135236,
        "alt_km": 515.2187203691119,
        "timestamp": "2025-12-04T05:42:43.035502+00:00",
        "meta_object_name": "CARTOSAT-2F",
        "meta_object_id": "2018-004A",
        "meta_epoch": "2025-12-03T22:08:15.239904",
        "meta_mean_motion": 15.19361073,
        "meta_eccentricity": 0.00011245,
        "meta_inclination": 97.433,
        "meta_ra_of_asc_node": 35.7026,
        "meta_arg_of_pericenter": 187.1053,
        "meta_mean_anomaly": 173.0166,
        "meta_ephemeris_type": 0,
        "meta_classification_type": "U",
        "meta_norad_cat_id": 43111,
        "meta_element_set_no": 999,
        "meta_rev_at_epoch": 43768,
        "meta_bstar": 8.4888928e-05,
        "meta_mean_motion_dot": 1.727e-05,
        "meta_mean_motion_ddot": 0,
        "tle_line1": "1 43111U 18004A   25337.92239861  .00001727  00000+0  84889-4 0  9990",
        "tle_line2": "2 43111  97.4330  35.7026 0001124 187.1053 173.0166 15.19361073437682"
      },
      "geometry": {
        "type": "Point",
        "coordinates": [
          61.440250336135236,
          -73.0872885149166
        ]
      }
    },
    {
      "type": "Feature",
      "properties": {
        "norad_id": 43259,
        "name": "GAOFEN-1 02",
        "group": "resource",
        "lat": -78.78746369981789,
        "lon": 81.81478717819317,
        "alt_km": 647.0441993388249,
        "timestamp": "2025-12-04T05:42:43.035512+00:00",
        "meta_object_name": "GAOFEN-1 02",
        "meta_object_id": "2018-031A",
        "meta_epoch": "2025-12-03T23:34:40.065024",
        "meta_mean_motion": 14.7645159,
        "meta_eccentricity": 0.00013072,
        "meta_inclination": 98.0819,
        "meta_ra_of_asc_node": 35.7678,
        "meta_arg_of_pericenter": 254.7553,
        "meta_mean_anomaly": 105.3512,
        "meta_ephemeris_type": 0,
        "meta_classification_type": "U",
        "meta_norad_cat_id": 43259,
        "meta_element_set_no": 999,
        "meta_rev_at_epoch": 41389,
        "meta_bstar": 0.00026117226,
        "meta_mean_motion_dot": 1.765e-05,
        "meta_mean_motion_ddot": 0,
        "tle_line1": "1 43259U 18031A   25337.98240816  .00001765  00000+0  26117-3 0  9992",
        "tle_line2": "2 43259  98.0819  35.7678 0001307 254.7553 105.3512 14.76451590413892"
      },
      "geometry": {
        "type": "Point",
        "coordinates": [
          81.81478717819317,
          -78.78746369981789
        ]
      }
    }
  ]
}